OBJECT_NAME,OBJECT_ID,EPOCH,MEAN_MOTION,ECCENTRICITY,INCLINATION,RA_OF_ASC_NODE,ARG_OF_PERICENTER,MEAN_ANOMALY,EPHEMERIS_TYPE,CLASSIFICATION_TYPE,NORAD_CAT_ID,ELEMENT_SET_NO,REV_AT_EPOCH,BSTAR,MEAN_MOTION_DOT,MEAN_MOTION_DDOT
COSMO-SKYMED 1,2007-023A,2026-07-07T12:28:18.564384,14.97197166,.0000991,97.8849,20.5476,89.4650,270.6685,0,U,31598,999,3283,.13179E-3,.1464E-4,0
COSMOS 2428,2007-029A,2026-07-07T07:41:34.012320,14.12930580,.000717,70.9381,312.2043,96.3524,263.8414,0,U,31792,999,98099,.10517E-3,.148E-5,0
SHIJIAN-16 (SJ-16),2013-057A,2026-07-07T13:09:42.211872,14.92656589,.0016113,74.9740,318.1178,183.2304,176.8783,0,U,39358,999,68938,.12063E-3,.1217E-4,0
ALOS-2,2014-029A,2026-07-07T13:32:35.083680,14.79472475,.0001597,97.9222,285.4371,91.7071,268.4323,0,U,39766,999,65459,.2363E-3,.1714E-4,0
YAOGAN-29,2015-069A,2026-07-07T11:39:15.230880,14.83101964,.0001366,98.0020,217.1496,21.2255,338.9015,0,U,41038,999,57363,.37156E-4,.249E-5,0
HXMT (HUIYAN),2017-034A,2026-07-07T12:35:37.612896,15.18640854,.0032765,43.0143,69.7830,274.0402,85.6701,0,U,42758,999,50075,.15443E-3,.3056E-4,0
SAOCOM 1A,2018-076A,2026-07-07T12:34:51.352608,14.82162325,.0001488,97.8890,14.9770,80.9401,279.1980,0,U,43641,999,41911,-.14267E-4,-.166E-5,0
SAOCOM 1B,2020-059A,2026-07-07T11:42:37.483776,14.82156466,.0001594,97.8895,14.0369,82.1981,277.9413,0,U,46265,999,31649,.95127E-4,.705E-5,0
CSS (TIANHE),2021-035A,2026-07-07T11:00:45.764928,15.58027856,.0002931,41.4676,198.7215,276.4067,83.6437,0,U,48274,999,29633,.11943E-3,.8899E-4,0
COSMOS 2550,2021-056A,2026-07-07T11:59:08.853792,15.33773421,.0008455,67.1431,38.4632,271.5431,88.4755,0,U,48865,999,28183,.32099E-4,.863E-5,0
XRISM,2023-137A,2026-07-07T10:47:54.508416,15.12636487,.0007816,31.0012,228.3319,168.6403,191.4413,0,U,57800,999,15593,.13601E-3,.2535E-4,0
ACS3,2024-077B,2026-07-07T05:20:55.879008,13.95267619,.0113938,97.1721,102.5640,45.7286,315.3161,0,U,59588,999,11083,.20728E-1,.29668E-3,0
SPACEMOBILE-003,2024-163A,2026-06-26T19:29:47.816736,15.20822722,.0005991,52.9744,265.1828,141.0621,219.0806,0,U,61045,999,9923,.90246E-4,.1689E-4,0
SPACEMOBILE-005,2024-163B,2026-07-06T07:47:25.125504,15.20800178,.00092973,52.9788,221.3760,169.9979,190.1202,0,U,61046,999,10067,-.17864937E-3,-.4321E-4,0
SPACEMOBILE-001,2024-163C,2026-07-06T14:03:53.754048,15.20820517,.0007438,52.9741,219.8899,169.1843,190.9313,0,U,61047,999,10071,.99523E-4,.1897E-4,0
SPACEMOBILE-002,2024-163D,2026-07-07T10:11:07.645056,15.20863040,.0006252,52.9752,216.0770,169.5969,190.5156,0,U,61048,999,10084,.23275E-3,.4884E-4,0
SPACEMOBILE-004,2024-163E,2026-07-06T11:41:01.712832,15.20801145,.0007073,52.9667,220.1743,196.8401,163.2360,0,U,61049,999,10070,.51661E-3,.11231E-3,0
SZ-21 MODULE,2025-246C,2026-07-07T00:49:18.082848,15.78192992,.0006295,41.4706,183.5562,162.6981,197.4080,0,U,66515,999,3687,.21756E-3,.38272E-3,0
SPACEMOBILE-006,2025-309A,2026-07-07T04:21:59.298912,15.18643108,.0010676,52.9952,240.0450,189.1004,170.9798,0,U,67232,999,2963,.47122E-4,.667E-5,0
